[{"OBJECT_NAME":"STARLINK-3711","OBJECT_ID":"2022-029AV","EPOCH":"2026-03-09T23:28:15.759552","MEAN_MOTION":15.14150134,"ECCENTRICITY":6.042e-5,"INCLINATION":53.2142,"RA_OF_ASC_NODE":66.1332,"ARG_OF_PERICENTER":49.6209,"MEAN_ANOMALY":310.4839,"EPHEMERIS_TYPE":0,"CLASSIFICATION_TYPE":"U","NORAD_CAT_ID":52131,"ELEMENT_SET_NO":999,"REV_AT_EPOCH":22100,"BSTAR":0.0018381126,"MEAN_MOTION_DOT":0.00033758,"MEAN_MOTION_DDOT":0},{"OBJECT_NAME":"STARLINK-6308","OBJECT_ID":"2023-065AH","EPOCH":"2026-03-09T22:00:01.999584","MEAN_MOTION":15.14468272,"ECCENTRICITY":0.00015369,"INCLINATION":42.9995,"RA_OF_ASC_NODE":195.9313,"ARG_OF_PERICENTER":265.5334,"MEAN_ANOMALY":352.8543,"EPHEMERIS_TYPE":0,"CLASSIFICATION_TYPE":"U","NORAD_CAT_ID":56534,"ELEMENT_SET_NO":999,"REV_AT_EPOCH":563,"BSTAR":0.0040146365,"MEAN_MOTION_DOT":0.0007575,"MEAN_MOTION_DDOT":0}]
